[
 {
  "area_code": "L01",
  "area_name": "D\u00f6beln",
  "docstatus": 0,
  "doctype": "Fishing Area",
  "modified": "2022-02-22 22:00:51.657948",
  "name": "L01",
  "organization": "AVL",
  "organization_name": "Anglerverband Leipzig e. V.",
  "parent": null,
  "parentfield": null,
  "parenttype": null
 },
 {
  "area_code": "L02",
  "area_name": "Delitzsch",
  "docstatus": 0,
  "doctype": "Fishing Area",
  "modified": "2022-02-22 22:00:51.956136",
  "name": "L02",
  "organization": "AVL",
  "organization_name": "Anglerverband Leipzig e. V.",
  "parent": null,
  "parentfield": null,
  "parenttype": null
 },
 {
  "area_code": "L03",
  "area_name": "Eilenburg",
  "docstatus": 0,
  "doctype": "Fishing Area",
  "modified": "2022-02-22 22:00:51.998207",
  "name": "L03",
  "organization": "AVL",
  "organization_name": "Anglerverband Leipzig e. V.",
  "parent": null,
  "parentfield": null,
  "parenttype": null
 },
 {
  "area_code": "L04",
  "area_name": "Torgau",
  "docstatus": 0,
  "doctype": "Fishing Area",
  "modified": "2022-02-22 22:00:52.046091",
  "name": "L04",
  "organization": "AVL",
  "organization_name": "Anglerverband Leipzig e. V.",
  "parent": null,
  "parentfield": null,
  "parenttype": null
 },
 {
  "area_code": "L05",
  "area_name": "Oschatz",
  "docstatus": 0,
  "doctype": "Fishing Area",
  "modified": "2022-02-22 22:00:52.086731",
  "name": "L05",
  "organization": "AVL",
  "organization_name": "Anglerverband Leipzig e. V.",
  "parent": null,
  "parentfield": null,
  "parenttype": null
 },
 {
  "area_code": "L06",
  "area_name": "Borna",
  "docstatus": 0,
  "doctype": "Fishing Area",
  "modified": "2022-02-22 22:00:52.150426",
  "name": "L06",
  "organization": "AVL",
  "organization_name": "Anglerverband Leipzig e. V.",
  "parent": null,
  "parentfield": null,
  "parenttype": null
 },
 {
  "area_code": "L07",
  "area_name": "Geithain",
  "docstatus": 0,
  "doctype": "Fishing Area",
  "modified": "2022-02-22 22:00:52.192865",
  "name": "L07",
  "organization": "AVL",
  "organization_name": "Anglerverband Leipzig e. V.",
  "parent": null,
  "parentfield": null,
  "parenttype": null
 },
 {
  "area_code": "L08",
  "area_name": "Wurzen",
  "docstatus": 0,
  "doctype": "Fishing Area",
  "modified": "2022-02-22 22:00:52.231738",
  "name": "L08",
  "organization": "AVL",
  "organization_name": "Anglerverband Leipzig e. V.",
  "parent": null,
  "parentfield": null,
  "parenttype": null
 },
 {
  "area_code": "L09",
  "area_name": "Grimma",
  "docstatus": 0,
  "doctype": "Fishing Area",
  "modified": "2022-02-22 22:00:52.268482",
  "name": "L09",
  "organization": "AVL",
  "organization_name": "Anglerverband Leipzig e. V.",
  "parent": null,
  "parentfield": null,
  "parenttype": null
 },
 {
  "area_code": "L10",
  "area_name": "Leipzig",
  "docstatus": 0,
  "doctype": "Fishing Area",
  "modified": "2022-02-22 22:00:52.302180",
  "name": "L10",
  "organization": "AVL",
  "organization_name": "Anglerverband Leipzig e. V.",
  "parent": null,
  "parentfield": null,
  "parenttype": null
 },
 {
  "area_code": "L11",
  "area_name": "Altenburger Land",
  "docstatus": 0,
  "doctype": "Fishing Area",
  "modified": "2022-02-22 22:00:52.334355",
  "name": "L11",
  "organization": "AVL",
  "organization_name": "Anglerverband Leipzig e. V.",
  "parent": null,
  "parentfield": null,
  "parenttype": null
 },
 {
  "area_code": "L12",
  "area_name": "Burgenlandkreis",
  "docstatus": 0,
  "doctype": "Fishing Area",
  "modified": "2022-02-22 22:00:52.373036",
  "name": "L12",
  "organization": "AVL",
  "organization_name": "Anglerverband Leipzig e. V.",
  "parent": null,
  "parentfield": null,
  "parenttype": null
 },
 {
  "area_code": "D01",
  "area_name": "Bautzen",
  "docstatus": 0,
  "doctype": "Fishing Area",
  "modified": "2022-02-22 22:00:52.418062",
  "name": "D01",
  "organization": "AVE",
  "organization_name": "Anglerverband \"Elbflorenz\" Dresden e. V.",
  "parent": null,
  "parentfield": null,
  "parenttype": null
 },
 {
  "area_code": "D02",
  "area_name": "Osterzgebirge",
  "docstatus": 0,
  "doctype": "Fishing Area",
  "modified": "2022-02-22 22:00:52.452731",
  "name": "D02",
  "organization": "AVE",
  "organization_name": "Anglerverband \"Elbflorenz\" Dresden e. V.",
  "parent": null,
  "parentfield": null,
  "parenttype": null
 },
 {
  "area_code": "D03",
  "area_name": "Dresden",
  "docstatus": 0,
  "doctype": "Fishing Area",
  "modified": "2022-02-22 22:00:52.498023",
  "name": "D03",
  "organization": "AVE",
  "organization_name": "Anglerverband \"Elbflorenz\" Dresden e. V.",
  "parent": null,
  "parentfield": null,
  "parenttype": null
 },
 {
  "area_code": "D04",
  "area_name": "Mei\u00dfen",
  "docstatus": 0,
  "doctype": "Fishing Area",
  "modified": "2022-02-22 22:00:52.544558",
  "name": "D04",
  "organization": "AVE",
  "organization_name": "Anglerverband \"Elbflorenz\" Dresden e. V.",
  "parent": null,
  "parentfield": null,
  "parenttype": null
 },
 {
  "area_code": "D06",
  "area_name": "G\u00f6rlitz-Niesky",
  "docstatus": 0,
  "doctype": "Fishing Area",
  "modified": "2022-02-22 22:00:52.596130",
  "name": "D06",
  "organization": "AVE",
  "organization_name": "Anglerverband \"Elbflorenz\" Dresden e. V.",
  "parent": null,
  "parentfield": null,
  "parenttype": null
 },
 {
  "area_code": "D07",
  "area_name": "Kamenz",
  "docstatus": 0,
  "doctype": "Fishing Area",
  "modified": "2022-02-22 22:00:52.639647",
  "name": "D07",
  "organization": "AVE",
  "organization_name": "Anglerverband \"Elbflorenz\" Dresden e. V.",
  "parent": null,
  "parentfield": null,
  "parenttype": null
 },
 {
  "area_code": "D08",
  "area_name": "Riesa-Gro\u00dfenhain",
  "docstatus": 0,
  "doctype": "Fishing Area",
  "modified": "2022-02-22 22:00:52.697031",
  "name": "D08",
  "organization": "AVE",
  "organization_name": "Anglerverband \"Elbflorenz\" Dresden e. V.",
  "parent": null,
  "parentfield": null,
  "parenttype": null
 },
 {
  "area_code": "D09",
  "area_name": "L\u00f6bau-Zittau",
  "docstatus": 0,
  "doctype": "Fishing Area",
  "modified": "2022-02-22 22:00:52.744548",
  "name": "D09",
  "organization": "AVE",
  "organization_name": "Anglerverband \"Elbflorenz\" Dresden e. V.",
  "parent": null,
  "parentfield": null,
  "parenttype": null
 },
 {
  "area_code": "D10",
  "area_name": "S\u00e4chsische Schweiz",
  "docstatus": 0,
  "doctype": "Fishing Area",
  "modified": "2022-02-22 22:00:52.786587",
  "name": "D10",
  "organization": "AVE",
  "organization_name": "Anglerverband \"Elbflorenz\" Dresden e. V.",
  "parent": null,
  "parentfield": null,
  "parenttype": null
 },
 {
  "area_code": "C01",
  "area_name": "Freiberg",
  "docstatus": 0,
  "doctype": "Fishing Area",
  "modified": "2022-02-22 22:00:52.851659",
  "name": "C01",
  "organization": "AVS",
  "organization_name": "Anglerverband S\u00fcdsachsen Mulde/Elster e. V.",
  "parent": null,
  "parentfield": null,
  "parenttype": null
 },
 {
  "area_code": "C02",
  "area_name": "Zschopau-Marienberg",
  "docstatus": 0,
  "doctype": "Fishing Area",
  "modified": "2022-02-22 22:00:52.888901",
  "name": "C02",
  "organization": "AVS",
  "organization_name": "Anglerverband S\u00fcdsachsen Mulde/Elster e. V.",
  "parent": null,
  "parentfield": null,
  "parenttype": null
 },
 {
  "area_code": "C03",
  "area_name": "Mittweida",
  "docstatus": 0,
  "doctype": "Fishing Area",
  "modified": "2022-02-22 22:00:52.925068",
  "name": "C03",
  "organization": "AVS",
  "organization_name": "Anglerverband S\u00fcdsachsen Mulde/Elster e. V.",
  "parent": null,
  "parentfield": null,
  "parenttype": null
 },
 {
  "area_code": "C04",
  "area_name": "Annaberg",
  "docstatus": 0,
  "doctype": "Fishing Area",
  "modified": "2022-02-22 22:00:52.962788",
  "name": "C04",
  "organization": "AVS",
  "organization_name": "Anglerverband S\u00fcdsachsen Mulde/Elster e. V.",
  "parent": null,
  "parentfield": null,
  "parenttype": null
 },
 {
  "area_code": "C05",
  "area_name": "Stollberg",
  "docstatus": 0,
  "doctype": "Fishing Area",
  "modified": "2022-02-22 22:00:53.007039",
  "name": "C05",
  "organization": "AVS",
  "organization_name": "Anglerverband S\u00fcdsachsen Mulde/Elster e. V.",
  "parent": null,
  "parentfield": null,
  "parenttype": null
 },
 {
  "area_code": "C06",
  "area_name": "Chemnitz-Glauchau",
  "docstatus": 0,
  "doctype": "Fishing Area",
  "modified": "2022-02-22 22:00:53.053361",
  "name": "C06",
  "organization": "AVS",
  "organization_name": "Anglerverband S\u00fcdsachsen Mulde/Elster e. V.",
  "parent": null,
  "parentfield": null,
  "parenttype": null
 },
 {
  "area_code": "C07",
  "area_name": "Aue-Schwarzenberg",
  "docstatus": 0,
  "doctype": "Fishing Area",
  "modified": "2022-02-22 22:00:53.086537",
  "name": "C07",
  "organization": "AVS",
  "organization_name": "Anglerverband S\u00fcdsachsen Mulde/Elster e. V.",
  "parent": null,
  "parentfield": null,
  "parenttype": null
 },
 {
  "area_code": "C08",
  "area_name": "Zwickau",
  "docstatus": 0,
  "doctype": "Fishing Area",
  "modified": "2022-02-22 22:00:53.134825",
  "name": "C08",
  "organization": "AVS",
  "organization_name": "Anglerverband S\u00fcdsachsen Mulde/Elster e. V.",
  "parent": null,
  "parentfield": null,
  "parenttype": null
 },
 {
  "area_code": "C09",
  "area_name": "Vogtland",
  "docstatus": 0,
  "doctype": "Fishing Area",
  "modified": "2022-02-22 22:00:53.183736",
  "name": "C09",
  "organization": "AVS",
  "organization_name": "Anglerverband S\u00fcdsachsen Mulde/Elster e. V.",
  "parent": null,
  "parentfield": null,
  "parenttype": null
 },
 {
  "area_code": "ABC",
  "area_name": "Test",
  "docstatus": 0,
  "doctype": "Fishing Area",
  "modified": "2023-04-11 15:42:50.984380",
  "name": "ABC",
  "organization": "62cc724379",
  "organization_name": "Angler",
  "parent": null,
  "parentfield": null,
  "parenttype": null
 }
]